NORAD_CAT_ID,OBJECT_NAME,OBJECT_TYPE,EPOCH,MEAN_MOTION,ECCENTRICITY,INCLINATION,RA_OF_ASC_NODE,ARG_OF_PERICENTER,MEAN_ANOMALY,BSTAR,MEAN_MOTION_DOT,MEAN_MOTION_DDOT,TLE_LINE0,TLE_LINE1,TLE_LINE2,SEMIMAJOR_AXIS,PERIOD,APOGEE,PERIGEE,DECAYED
53620.0,STARLINK-4615,PAYLOAD,2023-10-18 00:36:12,15.08844909,0.0001287,53.217,195.992,82.301,277.8128,-1.6351e-05,-5.48e-06,0.0,0 STARLINK-4615,1 53620U 22104AJ  23291.02514481 -.00000548  00000-0 -16351-4 0  9996,2 53620  53.2170 195.9920 0001287  82.3010 277.8128 15.08844909 63858,6917.865,95.437,540.621,538.84,0.0
53620.0,STARLINK-4615,PAYLOAD,2023-10-18 03:46:58,15.08848381,0.0001256,53.2172,195.3955,82.8526,277.2609,4.6823e-05,4.58e-06,0.0,0 STARLINK-4615,1 53620U 22104AJ  23291.15762192  .00000458  00000-0  46823-4 0  9999,2 53620  53.2172 195.3955 0001256  82.8526 277.2609 15.08848381 63198,6917.855,95.437,540.589,538.851,0.0
53620.0,STARLINK-4615,PAYLOAD,2023-10-19 03:37:45,15.08850644,0.000131,53.2166,190.9349,84.3914,275.7228,3.9388e-05,3.39e-06,0.0,0 STARLINK-4615,1 53620U 22104AJ  23292.15121875  .00000339  00000-0  39388-4 0  9993,2 53620  53.2166 190.9349 0001310  84.3914 275.7228 15.08850644 64026,6917.848,95.437,540.619,538.807,0.0
53620.0,STARLINK-4615,PAYLOAD,2023-10-19 22:42:23,15.08838337,0.0001311,53.2161,187.3669,81.6586,278.4555,0.00029421,4.397e-05,0.0,0 STARLINK-4615,1 53620U 22104AJ  23292.94610321  .00004397  00000-0  29421-3 0  9993,2 53620  53.2161 187.3669 0001311  81.6586 278.4555 15.08838337 64143,6917.885,95.438,540.657,538.844,0.0
53620.0,STARLINK-4615,PAYLOAD,2023-10-20 00:17:45,15.088469,8.58e-05,53.215,187.0719,81.6813,278.4276,4.6397e-05,4.51e-06,0.0,0 STARLINK-4615,1 53620U 22104AJ  23293.01233709  .00000451  00000-0  46397-4 0  9992,2 53620  53.2150 187.0719 0000858  81.6813 278.4276 15.08846900 63472,6917.859,95.437,540.318,539.131,0.0
53620.0,STARLINK-4615,PAYLOAD,2023-10-20 16:11:38,15.08826163,0.0001433,53.216,184.0964,79.8733,280.2421,-0.00010863,-2.016e-05,0.0,0 STARLINK-4615,1 53620U 22104AJ  23293.67475248 -.00002016  00000-0 -10863-3 0  9999,2 53620  53.2160 184.0964 0001433  79.8733 280.2421 15.08826163 63575,6917.923,95.438,540.779,538.796,0.0
53620.0,STARLINK-4615,PAYLOAD,2023-10-20 22:33:11,15.08824437,0.0001441,53.216,182.9058,71.782,288.3329,-0.00011707,-2.15e-05,0.0,0 STARLINK-4615,1 53620U 22104AJ  23293.93971591 -.00002150  00000-0 -11707-3 0  9997,2 53620  53.2160 182.9058 0001441  71.7820 288.3329 15.08824437 64291,6917.928,95.439,540.79,538.796,0.0
53620.0,STARLINK-4615,PAYLOAD,2023-10-21 09:40:52,15.08839459,0.0001319,53.215,180.8266,94.4764,265.6379,0.00011175,1.491e-05,0.0,0 STARLINK-4615,1 53620U 22104AJ  23294.40338941  .00001491  00000-0  11175-3 0  9990,2 53620  53.2150 180.8266 0001319  94.4764 265.6379 15.08839459 63686,6917.882,95.438,540.66,538.835,0.0
53620.0,STARLINK-4615,PAYLOAD,2023-10-21 22:23:57,15.08858183,0.0001241,53.215,178.4509,97.5649,262.5484,0.00054304,8.369e-05,0.0,0 STARLINK-4615,1 53620U 22104AJ  23294.93330149  .00008369  00000-0  54304-3 0  9992,2 53620  53.2150 178.4509 0001241  97.5649 262.5484 15.08858183 64442,6917.825,95.436,540.548,538.831,0.0
53620.0,STARLINK-4615,PAYLOAD,2023-10-21 23:59:20,15.08862635,0.0001415,53.2158,178.1517,92.4465,267.6689,0.00092495,0.00014472,0.0,0 STARLINK-4615,1 53620U 22104AJ  23294.99954408  .00014472  00000-0  92495-3 0  9993,2 53620  53.2158 178.1517 0001415  92.4465 267.6689 15.08862635 63774,6917.811,95.436,540.655,538.697,0.0
53620.0,STARLINK-4615,PAYLOAD,2023-10-22 09:31:39,15.08841413,0.0001712,53.2158,176.37,73.6468,286.4712,0.00010296,1.351e-05,0.0,0 STARLINK-4615,1 53620U 22104AJ  23295.39699017  .00001351  00000-0  10296-3 0  9991,2 53620  53.2158 176.3700 0001712  73.6468 286.4712 15.08841413 63836,6917.876,95.437,540.925,538.557,0.0
53620.0,STARLINK-4615,PAYLOAD,2023-10-22 20:39:22,15.08830828,0.0001368,53.2155,174.2865,81.0565,279.0582,-0.00012976,-2.352e-05,0.0,0 STARLINK-4615,1 53620U 22104AJ  23295.86067538 -.00002352  00000-0 -12976-3 0  9991,2 53620  53.2155 174.2865 0001368  81.0565 279.0582 15.08830828 63909,6917.908,95.438,540.72,538.827,0.0
53620.0,STARLINK-4615,PAYLOAD,2023-10-22 22:14:45,15.08826816,0.0001393,53.2155,173.9887,75.4781,284.6365,-3.3793e-05,-8.25e-06,0.0,0 STARLINK-4615,1 53620U 22104AJ  23295.92691509 -.00000825  00000-0 -33793-4 0  9993,2 53620  53.2155 173.9887 0001393  75.4781 284.6365 15.08826816 64593,6917.921,95.438,540.749,538.822,0.0
53620.0,STARLINK-4615,PAYLOAD,2023-10-23 22:05:33,15.08849979,0.0001454,53.2162,169.5284,72.21,287.905,0.0013335,0.00021004,0.0,0 STARLINK-4615,1 53620U 22104AJ  23296.92052368  .00021004  00000-0  13335-2 0  9996,2 53620  53.2162 169.5284 0001454  72.2100 287.9050 15.08849979 64740,6917.85,95.437,540.721,538.709,0.0
53620.0,STARLINK-4615,PAYLOAD,2023-10-24 09:13:14,15.08855713,0.0001444,53.2163,167.4468,72.2533,287.8617,0.00091831,0.00014363,0.0,0 STARLINK-4615,1 53620U 22104AJ  23297.38420060  .00014363  00000-0  91831-3 0  9993,2 53620  53.2163 167.4468 0001444  72.2533 287.8617 15.08855713 64135,6917.832,95.437,540.696,538.698,0.0
53620.0,STARLINK-4615,PAYLOAD,2023-10-25 01:07:05,15.08860735,0.0001623,53.2173,164.4727,82.1806,277.937,0.0005879,9.086e-05,0.0,0 STARLINK-4615,1 53620U 22104AJ  23298.04659504  .00009086  00000-0  58790-3 0  9997,2 53620  53.2173 164.4727 0001623  82.1806 277.9370 15.08860735 64230,6917.817,95.436,540.805,538.559,0.0
53620.0,STARLINK-4615,PAYLOAD,2023-10-26 00:57:52,15.08850301,0.0001577,53.2174,160.0109,85.6589,274.4583,0.00017983,2.576e-05,0.0,0 STARLINK-4615,1 53620U 22104AJ  23299.04019177  .00002576  00000-0  17983-3 0  9990,2 53620  53.2174 160.0109 0001577  85.6589 274.4583 15.08850301 64383,6917.849,95.437,540.805,538.623,0.0
53620.0,STARLINK-4615,PAYLOAD,2023-10-26 21:37:52,15.08853329,0.0001502,53.2165,156.1437,92.7928,267.3236,0.00015797,2.228e-05,0.0,0 STARLINK-4615,1 53620U 22104AJ  23299.90130643  .00002228  00000-0  15797-3 0  9992,2 53620  53.2165 156.1437 0001502  92.7928 267.3236 15.08853329 65196,6917.84,95.437,540.744,538.666,0.0
53620.0,STARLINK-4615,PAYLOAD,2023-10-27 13:31:44,15.08844538,0.0001469,53.2165,153.176,91.7096,268.4064,5.7923e-05,6.34e-06,0.0,0 STARLINK-4615,1 53620U 22104AJ  23300.56370748  .00000634  00000-0  57923-4 0  9996,2 53620  53.2165 153.1760 0001469  91.7096 268.4064 15.08844538 64618,6917.867,95.437,540.748,538.715,0.0
53620.0,STARLINK-4615,PAYLOAD,2023-10-28 07:00:59,15.08838062,0.0001937,53.2151,149.8994,83.5244,276.5969,1.4357e-05,-6e-07,0.0,0 STARLINK-4615,1 53620U 22104AJ  23301.29235284 -.00000060  00000-0  14357-4 0  9990,2 53620  53.2151 149.8994 0001937  83.5244 276.5969 15.08838062 64729,6917.886,95.438,541.091,538.411,0.0
53620.0,STARLINK-4615,PAYLOAD,2023-10-28 21:19:27,15.08833064,0.0001496,53.2155,147.2261,90.3462,269.7701,-0.00011586,-2.131e-05,0.0,0 STARLINK-4615,1 53620U 22104AJ  23301.88851737 -.00002131  00000-0 -11586-3 0  9994,2 53620  53.2155 147.2261 0001496  90.3462 269.7701 15.08833064 65490,6917.902,95.438,540.802,538.732,0.0
53620.0,STARLINK-4615,PAYLOAD,2023-10-28 22:54:51,15.08834526,0.0001545,53.216,146.9275,86.2982,273.8187,-0.00010641,-1.981e-05,0.0,0 STARLINK-4615,1 53620U 22104AJ  23301.95475697 -.00001981  00000-0 -10641-3 0  9992,2 53620  53.2160 146.9275 0001545  86.2982 273.8187 15.08834526 64827,6917.897,95.438,540.831,538.693,0.0
53620.0,STARLINK-4615,PAYLOAD,2023-10-29 19:34:51,15.08848095,0.000146,53.2151,143.0631,94.16,265.9559,0.00028977,4.328e-05,0.0,0 STARLINK-4615,1 53620U 22104AJ  23302.81587203  .00004328  00000-0  28977-3 0  9992,2 53620  53.2151 143.0631 0001460  94.1600 265.9559 15.08848095 64957,6917.856,95.437,540.731,538.711,0.0
53620.0,STARLINK-4615,PAYLOAD,2023-10-29 21:10:14,15.08849714,0.0001752,53.2154,142.7642,88.6962,271.4231,0.0003152,4.733e-05,0.0,0 STARLINK-4615,1 53620U 22104AJ  23302.88211219  .00004733  00000-0  31520-3 0  9998,2 53620  53.2154 142.7642 0001752  88.6962 271.4231 15.08849714 65646,6917.851,95.437,540.928,538.504,0.0
53620.0,STARLINK-4615,PAYLOAD,2023-10-30 13:04:06,15.08839731,0.0001761,53.2153,139.7935,80.581,279.5381,0.00020243,2.935e-05,0.0,0 STARLINK-4615,1 53620U 22104AJ  23303.54452238  .00002935  00000-0  20243-3 0  9992,2 53620  53.2153 139.7935 0001761  80.5810 279.5381 15.08839731 65068,6917.881,95.438,540.964,538.528,0.0
53620.0,STARLINK-4615,PAYLOAD,2023-10-30 19:25:39,15.08836175,0.0001419,53.2152,138.6022,82.0564,278.0589,3.8097e-05,3.18e-06,0.0,0 STARLINK-4615,1 53620U 22104AJ  23303.80948012  .00000318  00000-0  38097-4 0  9991,2 53620  53.2152 138.6022 0001419  82.0564 278.0589 15.08836175 65787,6917.892,95.438,540.739,538.775,0.0
53620.0,STARLINK-4615,PAYLOAD,2023-10-31 12:54:53,15.08846318,0.0001397,53.2157,135.3302,86.0143,274.1008,0.00016721,2.375e-05,0.0,0 STARLINK-4615,1 53620U 22104AJ  23304.53811725  .00002375  00000-0  16721-3 0  9996,2 53620  53.2157 135.3302 0001397  86.0143 274.1008 15.08846318 65894,6917.861,95.437,540.693,538.76,0.0
53620.0,STARLINK-4615,PAYLOAD,2023-10-31 19:16:25,15.08852243,0.0001333,53.2155,134.1413,82.1767,277.9376,0.00032791,4.936e-05,0.0,0 STARLINK-4615,1 53620U 22104AJ  23304.80307508  .00004936  00000-0  32791-3 0  9995,2 53620  53.2155 134.1413 0001333  82.1767 277.9376 15.08852243 65254,6917.843,95.437,540.63,538.786,0.0
53620.0,STARLINK-4615,PAYLOAD,2023-11-01 19:07:12,15.08848584,0.0001404,53.216,129.6782,81.5979,278.5172,0.00025275,3.738e-05,0.0,0 STARLINK-4615,1 53620U 22104AJ  23305.79667638  .00003738  00000-0  25275-3 0  9995,2 53620  53.2160 129.6782 0001404  81.5979 278.5172 15.08848584 65406,6917.854,95.437,540.69,538.748,0.0
53620.0,STARLINK-4615,PAYLOAD,2023-11-01 22:17:59,15.0884824,0.0001288,53.2158,129.0857,79.6366,280.4771,0.00026268,3.896e-05,0.0,0 STARLINK-4615,1 53620U 22104AJ  23305.92915640  .00003896  00000-0  26268-3 0  9997,2 53620  53.2158 129.0857 0001288  79.6366 280.4771 15.08848240 66102,6917.855,95.437,540.611,538.829,0.0
